{
  "type": "FeatureCollection",
  "features": [
    {
      "type": "Feature",
      "properties": {
        "norad_id": 66843,
        "name": "STARLINK-35997",
        "group": "last-30-days",
        "lat": 65.1558115217545,
        "lon": -48.68257175781124,
        "alt_km": 387.16014110997185,
        "timestamp": "2025-12-18T07:01:53.341788+00:00",
        "meta_object_name": "STARLINK-35997",
        "meta_object_id": "2025-280Y",
        "meta_epoch": "2025-12-17T22:00:01.999584",
        "meta_mean_motion": 15.60210359,
        "meta_eccentricity": 0.0003486,
        "meta_inclination": 70.0057,
        "meta_ra_of_asc_node": 184.2115,
        "meta_arg_of_pericenter": 273.7096,
        "meta_mean_anomaly": 239.5613,
        "meta_ephemeris_type": 0,
        "meta_classification_type": "U",
        "meta_norad_cat_id": 66843,
        "meta_element_set_no": 999,
        "meta_rev_at_epoch": 373,
        "meta_bstar": -0.027841481,
        "meta_mean_motion_dot": -0.02001331,
        "meta_mean_motion_ddot": 0,
        "tle_line1": "1 66843U 25280Y   25351.91668981 -.02001331  00000+0 -27841-1 0  9992",
        "tle_line2": "2 66843  70.0057 184.2115 0003486 273.7096 239.5613 15.60210359  3739"
      },
      "geometry": {
        "type": "Point",
        "coordinates": [
          -48.68257175781124,
          65.1558115217545
        ]
      }
    },
    {
      "type": "Feature",
      "properties": {
        "norad_id": 66844,
        "name": "STARLINK-36073",
        "group": "last-30-days",
        "lat": 66.2107094383841,
        "lon": -52.54449114869109,
        "alt_km": 386.9951213573395,
        "timestamp": "2025-12-18T07:01:53.341802+00:00",
        "meta_object_name": "STARLINK-36073",
        "meta_object_id": "2025-280Z",
        "meta_epoch": "2025-12-17T22:00:01.999584",
        "meta_mean_motion": 15.60193048,
        "meta_eccentricity": 0.00034515,
        "meta_inclination": 69.9995,
        "meta_ra_of_asc_node": 184.2135,
        "meta_arg_of_pericenter": 276.2583,
        "meta_mean_anomaly": 235.0989,
        "meta_ephemeris_type": 0,
        "meta_classification_type": "U",
        "meta_norad_cat_id": 66844,
        "meta_element_set_no": 999,
        "meta_rev_at_epoch": 373,
        "meta_bstar": -0.027144486,
        "meta_mean_motion_dot": -0.01956038,
        "meta_mean_motion_ddot": 0,
        "tle_line1": "1 66844U 25280Z   25351.91668981 -.01956038  00000+0 -27144-1 0  9991",
        "tle_line2": "2 66844  69.9995 184.2135 0003451 276.2583 235.0989 15.60193048  3733"
      },
      "geometry": {
        "type": "Point",
        "coordinates": [
          -52.54449114869109,
          66.2107094383841
        ]
      }
    },
    {
      "type": "Feature",
      "properties": {
        "norad_id": 66845,
        "name": "STARLINK-36068",
        "group": "last-30-days",
        "lat": 61.449065410596084,
        "lon": -38.84185393648984,
        "alt_km": 387.57131334028145,
        "timestamp": "2025-12-18T07:01:53.341812+00:00",
        "meta_object_name": "STARLINK-36068",
        "meta_object_id": "2025-280AA",
        "meta_epoch": "2025-12-17T22:00:01.999584",
        "meta_mean_motion": 15.6021279,
        "meta_eccentricity": 0.00035545,
        "meta_inclination": 70.0056,
        "meta_ra_of_asc_node": 184.2048,
        "meta_arg_of_pericenter": 277.8196,
        "meta_mean_anomaly": 241.1985,
        "meta_ephemeris_type": 0,
        "meta_classification_type": "U",
        "meta_norad_cat_id": 66845,
        "meta_element_set_no": 999,
        "meta_rev_at_epoch": 373,
        "meta_bstar": -0.027812893,
        "meta_mean_motion_dot": -0.01999754,
        "meta_mean_motion_ddot": 0,
        "tle_line1": "1 66845U 25280AA  25351.91668981 -.01999754  00000+0 -27813-1 0  9997",
        "tle_line2": "2 66845  70.0056 184.2048 0003554 277.8196 241.1985 15.60212790  3739"
      },
      "geometry": {
        "type": "Point",
        "coordinates": [
          -38.84185393648984,
          61.449065410596084
        ]
      }
    },
    {
      "type": "Feature",
      "properties": {
        "norad_id": 66846,
        "name": "STARLINK-36055",
        "group": "last-30-days",
        "lat": 63.996837771302765,
        "lon": -45.11490590465868,
        "alt_km": 387.3455909212662,
        "timestamp": "2025-12-18T07:01:53.341823+00:00",
        "meta_object_name": "STARLINK-36055",
        "meta_object_id": "2025-280AB",
        "meta_epoch": "2025-12-17T22:00:01.999584",
        "meta_mean_motion": 15.6021163,
        "meta_eccentricity": 0.00035707,
        "meta_inclination": 70.0057,
        "meta_ra_of_asc_node": 184.2096,
        "meta_arg_of_pericenter": 276.8049,
        "meta_mean_anomaly": 238.3819,
        "meta_ephemeris_type": 0,
        "meta_classification_type": "U",
        "meta_norad_cat_id": 66846,
        "meta_element_set_no": 999,
        "meta_rev_at_epoch": 373,
        "meta_bstar": -0.027863516,
        "meta_mean_motion_dot": -0.02002885,
        "meta_mean_motion_ddot": 0,
        "tle_line1": "1 66846U 25280AB  25351.91668981 -.02002885  00000+0 -27864-1 0  9995",
        "tle_line2": "2 66846  70.0057 184.2096 0003570 276.8049 238.3819 15.60211630  3734"
      },
      "geometry": {
        "type": "Point",
        "coordinates": [
          -45.11490590465868,
          63.996837771302765
        ]
      }
    },
    {
      "type": "Feature",
      "properties": {
        "norad_id": 66847,
        "name": "STARLINK-36061",
        "group": "last-30-days",
        "lat": 62.747400547374276,
        "lon": -41.838862578059945,
        "alt_km": 387.33276808179744,
        "timestamp": "2025-12-18T07:01:53.341832+00:00",
        "meta_object_name": "STARLINK-36061",
        "meta_object_id": "2025-280AC",
        "meta_epoch": "2025-12-17T22:00:01.999584",
        "meta_mean_motion": 15.60190481,
        "meta_eccentricity": 0.00034649,
        "meta_inclination": 69.9991,
        "meta_ra_of_asc_node": 184.2061,
        "meta_arg_of_pericenter": 278.3251,
        "meta_mean_anomaly": 238.7841,
        "meta_ephemeris_type": 0,
        "meta_classification_type": "U",
        "meta_norad_cat_id": 66847,
        "meta_element_set_no": 999,
        "meta_rev_at_epoch": 368,
        "meta_bstar": -0.027111276,
        "meta_mean_motion_dot": -0.01953771,
        "meta_mean_motion_ddot": 0,
        "tle_line1": "1 66847U 25280AC  25351.91668981 -.01953771  00000+0 -27111-1 0  9999",
        "tle_line2": "2 66847  69.9991 184.2061 0003464 278.3251 238.7841 15.60190481  3688"
      },
      "geometry": {
        "type": "Point",
        "coordinates": [
          -41.838862578059945,
          62.747400547374276
        ]
      }
    },
    {
      "type": "Feature",
      "properties": {
        "norad_id": 66848,
        "name": "STARLINK-36091",
        "group": "last-30-days",
        "lat": 3.855853797793259,
        "lon": -95.88301693458854,
        "alt_km": 339.65824006456205,
        "timestamp": "2025-12-18T07:01:53.341843+00:00",
        "meta_object_name": "STARLINK-36091",
        "meta_object_id": "2025-281A",
        "meta_epoch": "2025-12-17T22:00:01.999584",
        "meta_mean_motion": 15.77716256,
        "meta_eccentricity": 0.00015499,
        "meta_inclination": 43.0007,
        "meta_ra_of_asc_node": 90.5553,
        "meta_arg_of_pericenter": 277.7325,
        "meta_mean_anomaly": 277.429,
        "meta_ephemeris_type": 0,
        "meta_classification_type": "U",
        "meta_norad_cat_id": 66848,
        "meta_element_set_no": 999,
        "meta_rev_at_epoch": 222,
        "meta_bstar": -0.0085864614,
        "meta_mean_motion_dot": -0.01327838,
        "meta_mean_motion_ddot": 0,
        "tle_line1": "1 66848U 25281A   25351.91668981 -.01327838  00000+0 -85865-2 0  9991",
        "tle_line2": "2 66848  43.0007  90.5553 0001549 277.7325 277.4290 15.77716256  2221"
      },
      "geometry": {
        "type": "Point",
        "coordinates": [
          -95.88301693458854,
          3.855853797793259
        ]
      }
    },
    {
      "type": "Feature",
      "properties": {
        "norad_id": 66849,
        "name": "STARLINK-36102",
        "group": "last-30-days",
        "lat": 2.4671951428440626,
        "lon": -94.39107273922096,
        "alt_km": 339.890930749124,
        "timestamp": "2025-12-18T07:01:53.341853+00:00",
        "meta_object_name": "STARLINK-36102",
        "meta_object_id": "2025-281B",
        "meta_epoch": "2025-12-17T22:00:01.999584",
        "meta_mean_motion": 15.77662017,
        "meta_eccentricity": 0.00015333,
        "meta_inclination": 43.0011,
        "meta_ra_of_asc_node": 90.5495,
        "meta_arg_of_pericenter": 274.5072,
        "meta_mean_anomaly": 282.7697,
        "meta_ephemeris_type": 0,
        "meta_classification_type": "U",
        "meta_norad_cat_id": 66849,
        "meta_element_set_no": 999,
        "meta_rev_at_epoch": 222,
        "meta_bstar": -0.0086217169,
        "meta_mean_motion_dot": -0.01329781,
        "meta_mean_motion_ddot": 0,
        "tle_line1": "1 66849U 25281B   25351.91668981 -.01329781  00000+0 -86217-2 0  9993",
        "tle_line2": "2 66849  43.0011  90.5495 0001533 274.5072 282.7697 15.77662017  2224"
      },
      "geometry": {
        "type": "Point",
        "coordinates": [
          -94.39107273922096,
          2.4671951428440626
        ]
      }
    }
  ]
}